start=new Date('2022-12-31T00:00:00.000Z').valueOf();
sats=[{"REF_FRAME":"TEME","APOAPSIS":"564.295","PERIOD":"95.917","MEAN_MOTION_DDOT":"0.0000000000000","NORAD_CAT_ID":"53070","LAUNCH_DATE":"2022-07-11","MEAN_MOTION_DOT":"-0.00006146","OBJECT_TYPE":"PAYLOAD","CENTER_NAME":"EARTH","EPHEMERIS_TYPE":"0","PERIAPSIS":"561.526","ARG_OF_PERICENTER":"8.9508","FILE":"3726810","DECAY_DATE":null,"RA_OF_ASC_NODE":"182.9439","BSTAR":"-0.00047386000000","OBJECT_NAME":"STARLINK-4342","MEAN_ELEMENT_THEORY":"SGP4","ECCENTRICITY":"0.00019950","SEMIMAJOR_AXIS":"6941.045","GP_ID":"221790439","OBJECT_ID":"2022-077AD","REV_AT_EPOCH":"2609","MEAN_ANOMALY":"351.1751","ELEMENT_SET_NO":"999","TIME_SYSTEM":"UTC","MEAN_MOTION":"15.01292886","EPOCH":"2022-12-30T10:58:48.425088","RCS_SIZE":"LARGE","CLASSIFICATION_TYPE":"U","TLE_LINE2":"2 53070  97.6595 182.9439 0001995   8.9508 351.1751 15.01292886 26090","INCLINATION":"97.6595","COUNTRY_CODE":"US","SITE":"AFWTR","TLE_LINE1":"1 53070U 22077AD  22364.45750492 -.00006146  00000-0 -47386-3 0  9996"},{"NORAD_CAT_ID":"53071","LAUNCH_DATE":"2022-07-11","APOAPSIS":"565.306","REF_FRAME":"TEME","MEAN_MOTION_DDOT":"0.0000000000000","PERIOD":"95.919","DECAY_DATE":null,"PERIAPSIS":"560.656","ARG_OF_PERICENTER":"18.1113","FILE":"3726892","BSTAR":"0.00018626000000","OBJECT_NAME":"STARLINK-4328","RA_OF_ASC_NODE":"183.2823","CENTER_NAME":"EARTH","MEAN_MOTION_DOT":"0.00002335","OBJECT_TYPE":"PAYLOAD","EPHEMERIS_TYPE":"0","REV_AT_EPOCH":"2672","MEAN_ANOMALY":"342.0230","ELEMENT_SET_NO":"999","ECCENTRICITY":"0.00033500","SEMIMAJOR_AXIS":"6941.116","MEAN_ELEMENT_THEORY":"SGP4","GP_ID":"221791615","OBJECT_ID":"2022-077AE","TLE_LINE2":"2 53071  97.6566 183.2823 0003350  18.1113 342.0230 15.01270045 26726","INCLINATION":"97.6566","SITE":"AFWTR","TLE_LINE1":"1 53071U 22077AE  22364.78336199  .00002335  00000-0  18626-3 0  9996","COUNTRY_CODE":"US","MEAN_MOTION":"15.01270045","TIME_SYSTEM":"UTC","CLASSIFICATION_TYPE":"U","EPOCH":"2022-12-30T18:48:02.475936","RCS_SIZE":"LARGE"},{"RA_OF_ASC_NODE":"183.2797","OBJECT_NAME":"STARLINK-4344","BSTAR":"0.00013979000000","FILE":"3726907","PERIAPSIS":"561.123","ARG_OF_PERICENTER":"20.6806","DECAY_DATE":null,"EPHEMERIS_TYPE":"0","OBJECT_TYPE":"PAYLOAD","MEAN_MOTION_DOT":"0.00001737","CENTER_NAME":"EARTH","LAUNCH_DATE":"2022-07-11","NORAD_CAT_ID":"53072","PERIOD":"95.919","MEAN_MOTION_DDOT":"0.0000000000000","REF_FRAME":"TEME","APOAPSIS":"564.875","COUNTRY_CODE":"US","TLE_LINE1":"1 53072U 22077AF  22364.78706728  .00001737  00000-0  13979-3 0  9997","SITE":"AFWTR","INCLINATION":"97.6576","TLE_LINE2":"2 53072  97.6576 183.2797 0002703  20.6806 339.4527 15.01264205 26726","RCS_SIZE":"LARGE","EPOCH":"2022-12-30T18:53:22.612992","CLASSIFICATION_TYPE":"U","TIME_SYSTEM":"UTC","MEAN_MOTION":"15.01264205","ELEMENT_SET_NO":"999","MEAN_ANOMALY":"339.4527","REV_AT_EPOCH":"2672","OBJECT_ID":"2022-077AF","GP_ID":"221792267","MEAN_ELEMENT_THEORY":"SGP4","SEMIMAJOR_AXIS":"6941.134","ECCENTRICITY":"0.00027030"},{"CLASSIFICATION_TYPE":"U","EPOCH":"2022-12-30T12:18:48.330432","RCS_SIZE":"LARGE","MEAN_MOTION":"15.01263363","TIME_SYSTEM":"UTC","SITE":"AFWTR","TLE_LINE1":"1 53073U 22077AG  22364.51305938  .00001483  00000-0  12005-3 0  9994","COUNTRY_CODE":"US","TLE_LINE2":"2 53073  97.6550 183.0203 0003493  15.5741 344.5590 15.01263363 26100","INCLINATION":"97.6550","GP_ID":"221790649","OBJECT_ID":"2022-077AG","ECCENTRICITY":"0.00034930","SEMIMAJOR_AXIS":"6941.136","MEAN_ELEMENT_THEORY":"SGP4","ELEMENT_SET_NO":"999","REV_AT_EPOCH":"2610","MEAN_ANOMALY":"344.5590","EPHEMERIS_TYPE":"0","CENTER_NAME":"EARTH","MEAN_MOTION_DOT":"0.00001483","OBJECT_TYPE":"PAYLOAD","BSTAR":"0.00012005000000","OBJECT_NAME":"STARLINK-4346","RA_OF_ASC_NODE":"183.0203","DECAY_DATE":null,"PERIAPSIS":"560.577","ARG_OF_PERICENTER":"15.5741","FILE":"3726810","MEAN_MOTION_DDOT":"0.0000000000000","PERIOD":"95.919","APOAPSIS":"565.426","REF_FRAME":"TEME","LAUNCH_DATE":"2022-07-11","NORAD_CAT_ID":"53073"},{"LAUNCH_DATE":"2022-07-11","NORAD_CAT_ID":"53074","PERIOD":"95.919","MEAN_MOTION_DDOT":"0.0000000000000","REF_FRAME":"TEME","APOAPSIS":"565.123","RA_OF_ASC_NODE":"183.2824","OBJECT_NAME":"STARLINK-4310","BSTAR":"0.00021419000000","FILE":"3726908","PERIAPSIS":"560.832","ARG_OF_PERICENTER":"16.6060","DECAY_DATE":null,"EPHEMERIS_TYPE":"0","OBJECT_TYPE":"PAYLOAD","MEAN_MOTION_DOT":"0.00002694","CENTER_NAME":"EARTH","ELEMENT_SET_NO":"999","REV_AT_EPOCH":"2672","MEAN_ANOMALY":"343.5264","OBJECT_ID":"2022-077AH","GP_ID":"221792289","MEAN_ELEMENT_THEORY":"SGP4","SEMIMAJOR_AXIS":"6941.113","ECCENTRICITY":"0.00030910","COUNTRY_CODE":"US","TLE_LINE1":"1 53074U 22077AH  22364.78360601  .00002694  00000-0  21419-3 0  9996","SITE":"AFWTR","INCLINATION":"97.6566","TLE_LINE2":"2 53074  97.6566 183.2824 0003091  16.6060 343.5264 15.01271001 26722","RCS_SIZE":"LARGE","EPOCH":"2022-12-30T18:48:23.559264","CLASSIFICATION_TYPE":"U","TIME_SYSTEM":"UTC","MEAN_MOTION":"15.01271001"},{"APOAPSIS":"565.072","REF_FRAME":"TEME","MEAN_MOTION_DDOT":"0.0000000000000","PERIOD":"95.918","NORAD_CAT_ID":"53075","LAUNCH_DATE":"2022-07-11","CENTER_NAME":"EARTH","OBJECT_TYPE":"PAYLOAD","MEAN_MOTION_DOT":"-0.00003756","EPHEMERIS_TYPE":"0","DECAY_DATE":null,"FILE":"3726810","ARG_OF_PERICENTER":"12.1805","PERIAPSIS":"560.854","OBJECT_NAME":"STARLINK-4348","BSTAR":"-0.00028780000000","RA_OF_ASC_NODE":"183.0200","SEMIMAJOR_AXIS":"6941.098","ECCENTRICITY":"0.00030390","MEAN_ELEMENT_THEORY":"SGP4","OBJECT_ID":"2022-077AJ","GP_ID":"221789394","MEAN_ANOMALY":"347.9492","REV_AT_EPOCH":"2610","ELEMENT_SET_NO":"999","MEAN_MOTION":"15.01275847","TIME_SYSTEM":"UTC","CLASSIFICATION_TYPE":"U","RCS_SIZE":"LARGE","EPOCH":"2022-12-30T12:13:49.548864","INCLINATION":"97.6547","TLE_LINE2":"2 53075  97.6547 183.0200 0003039  12.1805 347.9492 15.01275847 26103","TLE_LINE1":"1 53075U 22077AJ  22364.50960126 -.00003756  00000-0 -28780-3 0  9995","SITE":"AFWTR","COUNTRY_CODE":"US"},{"RA_OF_ASC_NODE":"182.9534","OBJECT_NAME":"STARLINK-4347","BSTAR":"-0.00000427030000","FILE":"3726810","ARG_OF_PERICENTER":"7.1124","PERIAPSIS":"560.855","DECAY_DATE":null,"EPHEMERIS_TYPE":"0","OBJECT_TYPE":"PAYLOAD","MEAN_MOTION_DOT":"-0.00000114","CENTER_NAME":"EARTH","LAUNCH_DATE":"2022-07-11","NORAD_CAT_ID":"53076","PERIOD":"95.920","MEAN_MOTION_DDOT":"0.0000000000000","REF_FRAME":"TEME","APOAPSIS":"565.206","COUNTRY_CODE":"US","SITE":"AFWTR","TLE_LINE1":"1 53076U 22077AK  22364.44826988 -.00000114  00000-0 -42703-5 0  9994","INCLINATION":"97.6556","TLE_LINE2":"2 53076  97.6556 182.9534 0003134   7.1124 353.0145 15.01253917 26091","RCS_SIZE":"LARGE","EPOCH":"2022-12-30T10:45:30.517632","CLASSIFICATION_TYPE":"U","TIME_SYSTEM":"UTC","MEAN_MOTION":"15.01253917","ELEMENT_SET_NO":"999","MEAN_ANOMALY":"353.0145","REV_AT_EPOCH":"2609","OBJECT_ID":"2022-077AK","GP_ID":"221789603","MEAN_ELEMENT_THEORY":"SGP4","SEMIMAJOR_AXIS":"6941.166","ECCENTRICITY":"0.00031340"},{"SEMIMAJOR_AXIS":"6941.146","ECCENTRICITY":"0.00037030","MEAN_ELEMENT_THEORY":"SGP4","OBJECT_ID":"2022-077AL","GP_ID":"221790231","MEAN_ANOMALY":"346.5985","REV_AT_EPOCH":"2610","ELEMENT_SET_NO":"999","MEAN_MOTION":"15.01260164","TIME_SYSTEM":"UTC","CLASSIFICATION_TYPE":"U","RCS_SIZE":"LARGE","EPOCH":"2022-12-30T12:10:48.880416","INCLINATION":"97.6536","TLE_LINE2":"2 53077  97.6536 183.0204 0003703  13.5338 346.5985 15.01260164 26109","TLE_LINE1":"1 53077U 22077AL  22364.50751019  .00000424  00000-0  37626-4 0  9993","SITE":"AFWTR","COUNTRY_CODE":"US","APOAPSIS":"565.582","REF_FRAME":"TEME","MEAN_MOTION_DDOT":"0.0000000000000","PERIOD":"95.919","NORAD_CAT_ID":"53077","LAUNCH_DATE":"2022-07-11","CENTER_NAME":"EARTH","OBJECT_TYPE":"PAYLOAD","MEAN_MOTION_DOT":"0.00000424","EPHEMERIS_TYPE":"0","DECAY_DATE":null,"FILE":"3726810","PERIAPSIS":"560.441","ARG_OF_PERICENTER":"13.5338","OBJECT_NAME":"STARLINK-4315","BSTAR":"0.00003762600000","RA_OF_ASC_NODE":"183.0204"},{"EPHEMERIS_TYPE":"0","OBJECT_TYPE":"PAYLOAD","MEAN_MOTION_DOT":"0.00003414","CENTER_NAME":"EARTH","RA_OF_ASC_NODE":"183.0169","OBJECT_NAME":"STARLINK-4322","BSTAR":"0.00027022000000","FILE":"3726810","ARG_OF_PERICENTER":"9.4933","PERIAPSIS":"561.101","DECAY_DATE":null,"PERIOD":"95.919","MEAN_MOTION_DDOT":"0.0000000000000","REF_FRAME":"TEME","APOAPSIS":"564.864","LAUNCH_DATE":"2022-07-11","NORAD_CAT_ID":"53078","RCS_SIZE":"LARGE","EPOCH":"2022-12-30T12:16:08.036832","CLASSIFICATION_TYPE":"U","TIME_SYSTEM":"UTC","MEAN_MOTION":"15.01269502","COUNTRY_CODE":"US","SITE":"AFWTR","TLE_LINE1":"1 53078U 22077AM  22364.51120413  .00003414  00000-0  27022-3 0  9993","INCLINATION":"97.6554","TLE_LINE2":"2 53078  97.6554 183.0169 0002711   9.4933 350.6342 15.01269502 26101","OBJECT_ID":"2022-077AM","GP_ID":"221790440","MEAN_ELEMENT_THEORY":"SGP4","SEMIMAJOR_AXIS":"6941.118","ECCENTRICITY":"0.00027110","ELEMENT_SET_NO":"999","MEAN_ANOMALY":"350.6342","REV_AT_EPOCH":"2610"},{"ELEMENT_SET_NO":"999","REV_AT_EPOCH":"2672","MEAN_ANOMALY":"350.1106","OBJECT_ID":"2022-077AN","GP_ID":"221791672","SEMIMAJOR_AXIS":"6941.158","ECCENTRICITY":"0.00032830","MEAN_ELEMENT_THEORY":"SGP4","TLE_LINE1":"1 53079U 22077AN  22364.77226771  .00001588  00000-0  12818-3 0  9993","SITE":"AFWTR","COUNTRY_CODE":"US","INCLINATION":"97.6549","TLE_LINE2":"2 53079  97.6549 183.2828 0003283  10.0183 350.1106 15.01256374 26724","CLASSIFICATION_TYPE":"U","RCS_SIZE":"LARGE","EPOCH":"2022-12-30T18:32:03.930144","MEAN_MOTION":"15.01256374","TIME_SYSTEM":"UTC","LAUNCH_DATE":"2022-07-11","NORAD_CAT_ID":"53079","MEAN_MOTION_DDOT":"0.0000000000000","PERIOD":"95.920","APOAPSIS":"565.302","REF_FRAME":"TEME","OBJECT_NAME":"STARLINK-4327","BSTAR":"0.00012818000000","RA_OF_ASC_NODE":"183.2828","DECAY_DATE":null,"FILE":"3726899","PERIAPSIS":"560.744","ARG_OF_PERICENTER":"10.0183","EPHEMERIS_TYPE":"0","CENTER_NAME":"EARTH","OBJECT_TYPE":"PAYLOAD","MEAN_MOTION_DOT":"0.00001588"}];
